*******************************************************************************
JPL/HORIZONS                 119979 (2002 WC19)            2013-Dec-01 19:36:26
Rec #:119979 (+COV)   Soln.date: 2013-Oct-24_11:44:04    # obs: 102 (2001-2012)
 
FK5/J2000.0 helio. ecliptic osc. elements (au, days, deg., period=Julian yrs): 
 
  EPOCH=  2453340.5 ! 2004-Dec-01.00 (CT)          Residual RMS= .28005        
   EC= .2644746793683029   QR= 35.24969075941434   TP= 2472262.6776603167      
   OM= 109.7675812981813   W=  44.50427608610924   IN= 9.176008051276423       
   A= 47.92451023866937    MA= 303.7867539261903   ADIST= 60.5993297179244     
   PER= 331.77583          N= .00297076            ANGMOM= .114845548          
   DAN= 37.49915           DDN= 54.93418           L= 153.9029946              
   B= 6.4179906            MOID= 34.26689911       TP= 2056-Sep-21.1776603167  
 
Asteroid physical parameters (km, seconds, rotational period in hours):        
   GM= n.a.                RAD= n.a.               ROTPER= n.a.                
   H= 4.9                  G= .150                 B-V= n.a.                   
                           ALBEDO= n.a.            STYP= n.a.                  
 
ASTEROID comments: 
1: soln ref.= JPL#2, OCC=3
2: source=ORB
*******************************************************************************
 

 

*******************************************************************************
Ephemeris / WWW_USER Sun Dec  1 19:36:26 2013 Pasadena, USA      / Horizons    
*******************************************************************************
Target body name: 119979 (2002 WC19)              {source: JPL#2}
Center body name: Earth (399)                     {source: DE-0431LE-0431}
Center-site name: San Pedro Martir
*******************************************************************************
Start time      : A.D. 2013-Jan-01 00:00:00.0000 UT      
Stop  time      : A.D. 2014-Dec-31 00:00:00.0000 UT      
Step-size       : 1440 minutes
*******************************************************************************
Target pole/equ : No model available
Target radii    : (unavailable)                                                
Center geodetic : 244.536700,31.0434585,2.8281109 {E-lon(deg),Lat(deg),Alt(km)}
Center cylindric: 244.536700,5471.93108,3271.4810 {E-lon(deg),Dxy(km),Dz(km)}
Center pole/equ : High-precision EOP model        {East-longitude +}
Center radii    : 6378.1 x 6378.1 x 6356.8 km     {Equator, meridian, pole}    
Target primary  : Sun
Vis. interferer : MOON (R_eq= 1737.400) km        {source: DE-0431LE-0431}
Rel. light bend : Sun, EARTH                      {source: DE-0431LE-0431}
Rel. lght bnd GM: 1.3271E+11, 3.9860E+05 km^3/s^2                              
Small-body perts: Yes                             {source: SB431-BIG16}
Atmos refraction: NO (AIRLESS)
RA format       : DEG
Time format     : BOTH
EOP file        : eop.131128.p140219                                           
EOP coverage    : DATA-BASED 1962-JAN-20 TO 2013-NOV-28. PREDICTS-> 2014-FEB-18
Units conversion: 1 au= 149597870.700 km, c= 299792.458 km/s, 1 day= 86400.0 s 
Table cut-offs 1: Elevation (-90.0deg=NO ),Airmass (>38.000=NO), Daylight (NO )
Table cut-offs 2: Solar Elongation (  0.0,180.0=NO ),Local Hour Angle( 0.0=NO )
*******************************************************************************
Initial FK5/J2000.0 heliocentric ecliptic osculating elements (au, days, deg.):
  EPOCH=  2453340.5 ! 2004-Dec-01.00 (CT)          Residual RMS= .28005        
   EC= .2644746793683029   QR= 35.24969075941434   TP= 2472262.6776603167      
   OM= 109.7675812981813   W=  44.50427608610924   IN= 9.176008051276423       
Asteroid physical parameters (km, seconds, rotational period in hours):        
   GM= n.a.                RAD= n.a.               ROTPER= n.a.                
   H= 4.9                  G= .150                 B-V= n.a.                   
                           ALBEDO= n.a.            STYP= n.a.                  
************************************************************************************************************
 Date__(UT)__HR:MN Date_________JDUT     R.A._(J2000.0)_DEC. dRA*cosD d(DEC)/dt            delta      deldot
************************************************************************************************************
$$SOE
 2013-Sep-13 00:00 2456548.500000000 *m   81.54561  18.70460 0.677076  -0.16659 41.5886420260168 -30.3556510
 2013-Sep-14 00:00 2456549.500000000 *m   81.54987  18.70353 0.617700  -0.17007 41.5710150963076 -30.3698379
 2013-Sep-15 00:00 2456550.500000000 *m   81.55370  18.70243 0.558274  -0.17347 41.5533857625251 -30.3757921
 2013-Sep-16 00:00 2456551.500000000 *m   81.55712  18.70131 0.498805  -0.17679 41.5357587575309 -30.3736812
 2013-Sep-17 00:00 2456552.500000000 *m   81.56011  18.70016 0.439297  -0.18002 41.5181387221405 -30.3636496
 2013-Sep-18 00:00 2456553.500000000 *    81.56268  18.69899 0.379745  -0.18318 41.5005302241617 -30.3457992
 2013-Sep-19 00:00 2456554.500000000 *    81.56483  18.69779 0.320142  -0.18626 41.4829377876947 -30.3201743
 2013-Sep-20 00:00 2456555.500000000 *    81.56656  18.69658 0.260483  -0.18926 41.4653659281893 -30.2867573
 2013-Sep-21 00:00 2456556.500000000 *    81.56786  18.69534 0.200762  -0.19217 41.4478191868311 -30.2454753
 2013-Sep-22 00:00 2456557.500000000 *    81.56875  18.69408 0.140981  -0.19500 41.4303021581989 -30.1962157
 2013-Sep-23 00:00 2456558.500000000 *    81.56921  18.69279 0.081144  -0.19774 41.4128195076705 -30.1388454
 2013-Sep-24 00:00 2456559.500000000 *    81.56924  18.69149 0.021261  -0.20040 41.3953759783571 -30.0732273
 2013-Sep-25 00:00 2456560.500000000 *    81.56886  18.69017 -0.03865  -0.20297 41.3779763898769 -29.9992313
 2013-Sep-26 00:00 2456561.500000000 *    81.56805  18.68883 -0.09858  -0.20545 41.3606256323248 -29.9167401
 2013-Sep-27 00:00 2456562.500000000 *    81.56682  18.68747 -0.15850  -0.20785 41.3433286585688 -29.8256499
 2013-Sep-28 00:00 2456563.500000000 *    81.56516  18.68610 -0.21839  -0.21015 41.3260904770973 -29.7258677
 2013-Sep-29 00:00 2456564.500000000 *    81.56309  18.68470 -0.27824  -0.21237 41.3089161466005 -29.6173083
 2013-Sep-30 00:00 2456565.500000000 *    81.56059  18.68329 -0.33801  -0.21449 41.2918107725393 -29.4998907
 2013-Oct-01 00:00 2456566.500000000 *    81.55767  18.68187 -0.39769  -0.21652 41.2747795051775 -29.3735369
 2013-Oct-02 00:00 2456567.500000000 *    81.55433  18.68042 -0.45725  -0.21846 41.2578275378880 -29.2381723
 2013-Oct-03 00:00 2456568.500000000 *    81.55057  18.67897 -0.51665  -0.22030 41.2409601039717 -29.0937305
 2013-Oct-04 00:00 2456569.500000000 *m   81.54639  18.67749 -0.57586  -0.22205 41.2241824698631 -28.9401609
 2013-Oct-05 00:00 2456570.500000000 *m   81.54179  18.67601 -0.63486  -0.22371 41.2074999226738 -28.7774406
 2013-Oct-06 00:00 2456571.500000000 *m   81.53678  18.67451 -0.69359  -0.22527 41.1909177508145 -28.6055862
 2013-Oct-07 00:00 2456572.500000000 *m   81.53136  18.67300 -0.75203  -0.22674 41.1744412180190 -28.4246640
 2013-Oct-08 00:00 2456573.500000000 *m   81.52553  18.67148 -0.81012  -0.22811 41.1580755331208 -28.2347939
 2013-Oct-09 00:00 2456574.500000000 *m   81.51929  18.66994 -0.86784  -0.22939 41.1418258196069 -28.0361463
 2013-Oct-10 00:00 2456575.500000000 *m   81.51264  18.66840 -0.92516  -0.23057 41.1256970894980 -27.8289305
 2013-Oct-11 00:00 2456576.500000000 *m   81.50560  18.66684 -0.98205  -0.23165 41.1096942251852 -27.6133793
 2013-Oct-12 00:00 2456577.500000000 *m   81.49815  18.66528 -1.03849  -0.23265 41.0938219710475 -27.3897311
 2013-Oct-13 00:00 2456578.500000000 *m   81.49031  18.66371 -1.09447  -0.23354 41.0780849348816 -27.1582139
 2013-Oct-14 00:00 2456579.500000000 *m   81.48208  18.66213 -1.14999  -0.23434 41.0624875980579 -26.9190315
 2013-Oct-15 00:00 2456580.500000000 *m   81.47346  18.66054 -1.20505  -0.23505 41.0470343329006 -26.6723521
 2013-Oct-16 00:00 2456581.500000000 *m   81.46445  18.65895 -1.25964  -0.23566 41.0317294256263 -26.4183006
 2013-Oct-17 00:00 2456582.500000000 *m   81.45506  18.65735 -1.31377  -0.23617 41.0165771028309 -26.1569542
 2013-Oct-18 00:00 2456583.500000000 *    81.44530  18.65574 -1.36745  -0.23659 41.0015815589076 -25.8883440
 2013-Oct-19 00:00 2456584.500000000 *    81.43515  18.65413 -1.42066  -0.23691 40.9867469812791 -25.6124606
 2013-Oct-20 00:00 2456585.500000000 *    81.42464  18.65252 -1.47341  -0.23713 40.9720775704418 -25.3292661
 2013-Oct-21 00:00 2456586.500000000 *    81.41376  18.65090 -1.52569  -0.23725 40.9575775527929 -25.0387071
 2013-Oct-22 00:00 2456587.500000000 *    81.40251  18.64928 -1.57748  -0.23727 40.9432511857809 -24.7407274
 2013-Oct-23 00:00 2456588.500000000 *    81.39090  18.64766 -1.62877  -0.23719 40.9291027564891 -24.4352779
 2013-Oct-24 00:00 2456589.500000000 *    81.37894  18.64603 -1.67954  -0.23701 40.9151365757780 -24.1223219
 2013-Oct-25 00:00 2456590.500000000 *    81.36662  18.64441 -1.72976  -0.23673 40.9013569703735 -23.8018373
 2013-Oct-26 00:00 2456591.500000000 *    81.35395  18.64278 -1.77941  -0.23636 40.8877682749264 -23.4738144
 2013-Oct-27 00:00 2456592.500000000 *    81.34094  18.64116 -1.82847  -0.23588 40.8743748253849 -23.1382538
 2013-Oct-28 00:00 2456593.500000000 *    81.32758  18.63954 -1.87692  -0.23530 40.8611809542356 -22.7951625
 2013-Oct-29 00:00 2456594.500000000 *    81.31389  18.63792 -1.92472  -0.23462 40.8481909874101 -22.4445520
 2013-Oct-30 00:00 2456595.500000000 *    81.29987  18.63630 -1.97186  -0.23383 40.8354092419016 -22.0864382
 2013-Oct-31 00:00 2456596.500000000 *    81.28551  18.63468 -2.01829  -0.23295 40.8228400223905 -21.7208450
 2013-Nov-01 00:00 2456597.500000000 *    81.27084  18.63307 -2.06400  -0.23197 40.8104876144851 -21.3478123
 2013-Nov-02 00:00 2456598.500000000 *    81.25585  18.63147 -2.10893  -0.23088 40.7983562718395 -20.9674095
